COMMENT,ORIGINATOR,NORAD_CAT_ID,OBJECT_NAME,OBJECT_TYPE,CLASSIFICATION_TYPE,INTLDES,EPOCH,EPOCH_MICROSECONDS,MEAN_MOTION,ECCENTRICITY,INCLINATION,RA_OF_ASC_NODE,ARG_OF_PERICENTER,MEAN_ANOMALY,EPHEMERIS_TYPE,ELEMENT_SET_NO,REV_AT_EPOCH,BSTAR,MEAN_MOTION_DOT,MEAN_MOTION_DDOT,FILE,TLE_LINE0,TLE_LINE1,TLE_LINE2,OBJECT_ID,OBJECT_NUMBER,SEMIMAJOR_AXIS,PERIOD,APOGEE,PERIGEE,DECAYED,date
GENERATED VIA SPACETRACK.ORG API,18 SPCS,52181,SPACEBEE-131,PAYLOAD,U,22033AA,2023/2/25 17:33,380992,15.33850349,0.0007774,97.3571,139.9399,204.6291,155.4581,0,999,5032,0.0011264,0.00036968,0,3839003,0 SPACEBEE-131,1 52181U 22033AA  23056.73193728  .00036968  00000-0  11264-2 0  9991,2 52181  97.3571 139.9399 0007774 204.6291 155.4581 15.33850349 50323,2022-033AA,52181,6842.474,93.881,469.659,459.02,1,2023/4/26
GENERATED VIA SPACETRACK.ORG API,18 SPCS,52181,SPACEBEE-131,PAYLOAD,U,22033AA,2023/2/26 2:57,132928,15.33892667,0.0007787,97.357,140.3298,203.4882,156.6006,0,999,5036,0.0015257,0.00050255,0,3840345,0 SPACEBEE-131,1 52181U 22033AA  23057.12335802  .00050255  00000-0  15257-2 0  9997,2 52181  97.3570 140.3298 0007787 203.4882 156.6006 15.33892667 50361,2022-033AA,52181,6842.349,93.879,469.542,458.885,1,2023/4/27
GENERATED VIA SPACETRACK.ORG API,18 SPCS,52181,SPACEBEE-131,PAYLOAD,U,22033AA,2023/2/26 4:31,525056,15.33898141,0.0007792,97.357,140.3948,203.285,156.8041,0,999,5039,0.0015086,0.00049695,0,3841853,0 SPACEBEE-131,1 52181U 22033AA  23057.18859404  .00049695  00000-0  15086-2 0  9998,2 52181  97.3570 140.3948 0007792 203.2850 156.8041 15.33898141 50399,2022-033AA,52181,6842.332,93.878,469.529,458.866,1,2023/4/28
GENERATED VIA SPACETRACK.ORG API,18 SPCS,52181,SPACEBEE-131,PAYLOAD,U,22033AA,2023/2/26 17:03,743648,15.33944445,0.000779,97.3571,140.9148,201.5196,158.5721,0,999,5047,0.0013466,0.00044385,0,3843368,0 SPACEBEE-131,1 52181U 22033AA  23057.71047157  .00044385  00000-0  13466-2 0  9992,2 52181  97.3571 140.9148 0007790 201.5196 158.5721 15.33944445 50472,2022-033AA,52181,6842.195,93.876,469.39,458.73,1,2023/4/29
GENERATED VIA SPACETRACK.ORG API,18 SPCS,52181,SPACEBEE-131,PAYLOAD,U,22033AA,2023/2/27 4:00,337184,15.34005262,0.0007789,97.3569,141.3699,199.7522,160.342,0,999,5052,0.0019116,0.00063318,0,3845848,0 SPACEBEE-131,1 52181U 22033AA  23058.16709881  .00063318  00000-0  19116-2 0  9996,2 52181  97.3569 141.3699 0007789 199.7522 160.3420 15.34005262 50523,2022-033AA,52181,6842.014,93.872,469.208,458.549,1,2023/4/30
GENERATED VIA SPACETRACK.ORG API,18 SPCS,52181,SPACEBEE-131,PAYLOAD,U,22033AA,2023/2/27 4:00,337184,15.34005262,0.0007789,97.3569,141.3699,199.7522,160.342,0,999,5054,0.0019116,0.00063318,0,3846396,0 SPACEBEE-131,1 52181U 22033AA  23058.16709881  .00063318  00000-0  19116-2 0  9996,2 52181  97.3569 141.3699 0007789 199.7522 160.3420 15.34005262 50545,2022-033AA,52181,6842.014,93.872,469.208,458.549,1,
GENERATED VIA SPACETRACK.ORG API,18 SPCS,52181,SPACEBEE-131,PAYLOAD,U,22033AA,2023/2/27 16:32,895008,15.34127647,0.0007796,97.3571,141.8901,198.1626,161.934,0,999,5060,0.0039571,0.00132865,0,3846765,0 SPACEBEE-131,1 52181U 22033AA  23058.68893397  .00132865  00000-0  39571-2 0  9990,2 52181  97.3571 141.8901 0007796 198.1626 161.9340 15.34127647 50602,2022-033AA,52181,6841.65,93.864,468.849,458.181,1,
GENERATED VIA SPACETRACK.ORG API,18 SPCS,52181,SPACEBEE-131,PAYLOAD,U,22033AA,2023/2/27 16:32,895008,15.34127647,0.0007796,97.3571,141.8901,198.1626,161.934,0,999,5062,0.0039571,0.00132865,0,3846812,0 SPACEBEE-131,1 52181U 22033AA  23058.68893397  .00132865  00000-0  39571-2 0  9990,2 52181  97.3571 141.8901 0007796 198.1626 161.9340 15.34127647 50624,2022-033AA,52181,6841.65,93.864,468.849,458.181,1,
GENERATED VIA SPACETRACK.ORG API,18 SPCS,52181,SPACEBEE-131,PAYLOAD,U,22033AA,2023/2/28 5:03,237536,15.34167832,0.0007882,97.3567,142.4097,196.1803,163.919,0,999,5068,0.0020526,0.0006839,0,3847295,0 SPACEBEE-131,1 52181U 22033AA  23059.21074349  .00068390  00000-0  20526-2 0  9999,2 52181  97.3567 142.4097 0007882 196.1803 163.9190 15.34167832 50684,2022-033AA,52181,6841.53,93.862,468.788,458.003,1,
GENERATED VIA SPACETRACK.ORG API,18 SPCS,52181,SPACEBEE-131,PAYLOAD,U,22033AA,2023/2/28 11:19,519744,15.34197872,0.0007859,97.3566,142.6702,195.4449,164.6555,0,999,5074,0.0019251,0.00064162,0,3847542,0 SPACEBEE-131,1 52181U 22033AA  23059.47163796  .00064162  00000-0  19251-2 0  9998,2 52181  97.3566 142.6702 0007859 195.4449 164.6555 15.34197872 50747,2022-033AA,52181,6841.441,93.86,468.683,457.929,1,
GENERATED VIA SPACETRACK.ORG API,18 SPCS,52181,SPACEBEE-131,PAYLOAD,U,22033AA,2023/2/28 19:08,597408,15.3422735,0.0007858,97.3564,142.9951,194.9309,165.1703,0,999,5079,0.001509,0.00050233,0,3847656,0 SPACEBEE-131,1 52181U 22033AA  23059.79774997  .00050233  00000-0  15090-2 0  9995,2 52181  97.3564 142.9951 0007858 194.9309 165.1703 15.34227350 50793,2022-033AA,52181,6841.353,93.858,468.594,457.843,1,
GENERATED VIA SPACETRACK.ORG API,18 SPCS,52181,SPACEBEE-131,PAYLOAD,U,22033AA,2023/2/28 19:08,597408,15.3422735,0.0007858,97.3564,142.9951,194.9309,165.1703,0,999,5077,0.001509,0.00050233,0,3847894,0 SPACEBEE-131,1 52181U 22033AA  23059.79774997  .00050233  00000-0  15090-2 0  9995,2 52181  97.3564 142.9951 0007858 194.9309 165.1703 15.34227350 50771,2022-033AA,52181,6841.353,93.858,468.594,457.843,1,
GENERATED VIA SPACETRACK.ORG API,18 SPCS,52181,SPACEBEE-131,PAYLOAD,U,22033AA,2023/3/1 4:32,974592,15.34274542,0.0007871,97.3565,143.3847,193.7334,166.3696,0,999,5083,0.0017039,0.00056865,0,3848761,0 SPACEBEE-131,1 52181U 22033AA  23060.18907378  .00056865  00000-0  17039-2 0  9993,2 52181  97.3565 143.3847 0007871 193.7334 166.3696 15.34274542 50837,2022-033AA,52181,6841.213,93.855,468.463,457.693,1,
GENERATED VIA SPACETRACK.ORG API,18 SPCS,52181,SPACEBEE-131,PAYLOAD,U,22033AA,2023/3/1 4:32,974592,15.34274542,0.0007871,97.3565,143.3847,193.7334,166.3696,0,999,5085,0.0017039,0.00056865,0,3848834,0 SPACEBEE-131,1 52181U 22033AA  23060.18907378  .00056865  00000-0  17039-2 0  9993,2 52181  97.3565 143.3847 0007871 193.7334 166.3696 15.34274542 50859,2022-033AA,52181,6841.213,93.855,468.463,457.693,1,
GENERATED VIA SPACETRACK.ORG API,18 SPCS,52181,SPACEBEE-131,PAYLOAD,U,22033AA,2023/3/2 4:00,129344,15.34370101,0.0007895,97.3569,144.36,189.8886,170.2203,0,999,5100,0.0013382,0.00044708,0,3849487,0 SPACEBEE-131,1 52181U 22033AA  23061.16733946  .00044708  00000-0  13382-2 0  9990,2 52181  97.3569 144.3600 0007895 189.8886 170.2203 15.34370101 51009,2022-033AA,52181,6840.929,93.85,468.195,457.393,1,
GENERATED VIA SPACETRACK.ORG API,18 SPCS,52181,SPACEBEE-131,PAYLOAD,U,22033AA,2023/3/3 5:03,926144,15.34494686,0.0007922,97.3569,145.4003,186.4471,173.6671,0,999,5114,0.0020626,0.00069448,0,3850019,0 SPACEBEE-131,1 52181U 22033AA  23062.21075146  .00069448  00000-0  20626-2 0  9995,2 52181  97.3569 145.4003 0007922 186.4471 173.6671 15.34494686 51148,2022-033AA,52181,6840.559,93.842,467.843,457.005,1,
GENERATED VIA SPACETRACK.ORG API,18 SPCS,52181,SPACEBEE-131,PAYLOAD,U,22033AA,2023/3/3 5:03,926144,15.34494686,0.0007922,97.3569,145.4003,186.4471,173.6671,0,999,5116,0.0020626,0.00069448,0,3850163,0 SPACEBEE-131,1 52181U 22033AA  23062.21075146  .00069448  00000-0  20626-2 0  9995,2 52181  97.3569 145.4003 0007922 186.4471 173.6671 15.34494686 51160,2022-033AA,52181,6840.559,93.842,467.843,457.005,1,
GENERATED VIA SPACETRACK.ORG API,18 SPCS,52181,SPACEBEE-131,PAYLOAD,U,22033AA,2023/3/4 4:31,960192,15.34630225,0.0007969,97.3566,146.3752,183.272,176.8472,0,999,5131,0.0022415,0.00075868,0,3851072,0 SPACEBEE-131,1 52181U 22033AA  23063.18886528  .00075868  00000-0  22415-2 0  9997,2 52181  97.3566 146.3752 0007969 183.2720 176.8472 15.34630225 51313,2022-033AA,52181,6840.156,93.834,467.472,456.57,1,
GENERATED VIA SPACETRACK.ORG API,18 SPCS,52181,SPACEBEE-131,PAYLOAD,U,22033AA,2023/3/4 15:29,931584,15.34694076,0.0007885,97.3567,146.8311,181.8913,178.2301,0,999,5136,0.0022985,0.00077976,0,3851063,0 SPACEBEE-131,1 52181U 22033AA  23063.64528856  .00077976  00000-0  22985-2 0  9999,2 52181  97.3567 146.8311 0007885 181.8913 178.2301 15.34694076 51361,2022-033AA,52181,6839.966,93.83,467.225,456.438,1,
GENERATED VIA SPACETRACK.ORG API,18 SPCS,52181,SPACEBEE-131,PAYLOAD,U,22033AA,2023/3/4 17:03,377472,15.34702314,0.0007833,97.3568,146.8963,182.0048,178.1165,0,999,5139,0.0021966,0.00074501,0,3851350,0 SPACEBEE-131,1 52181U 22033AA  23063.71049048  .00074501  00000-0  21966-2 0  9997,2 52181  97.3568 146.8963 0007833 182.0048 178.1165 15.34702314 51395,2022-033AA,52181,6839.942,93.829,467.165,456.449,1,
GENERATED VIA SPACETRACK.ORG API,18 SPCS,52181,SPACEBEE-131,PAYLOAD,U,22033AA,2023/3/5 5:34,580320,15.34778002,0.0007815,97.357,147.4162,180.7246,179.3988,0,999,5145,0.0020742,0.00070477,0,3851919,0 SPACEBEE-131,1 52181U 22033AA  23064.23209005  .00070477  00000-0  20742-2 0  9995,2 52181  97.3570 147.4162 0007815 180.7246 179.3988 15.34778002 51451,2022-033AA,52181,6839.717,93.825,466.927,456.237,1,
GENERATED VIA SPACETRACK.ORG API,18 SPCS,52181,SPACEBEE-131,PAYLOAD,U,22033AA,2023/3/5 5:34,580320,15.34778002,0.0007815,97.357,147.4162,180.7246,179.3988,0,999,5147,0.0020742,0.00070477,0,3851939,0 SPACEBEE-131,1 52181U 22033AA  23064.23209005  .00070477  00000-0  20742-2 0  9995,2 52181  97.3570 147.4162 0007815 180.7246 179.3988 15.34778002 51473,2022-033AA,52181,6839.717,93.825,466.927,456.237,1,
GENERATED VIA SPACETRACK.ORG API,18 SPCS,52181,SPACEBEE-131,PAYLOAD,U,22033AA,2023/3/5 18:05,641312,15.34851489,0.0007731,97.357,147.9368,179.1973,180.9284,0,999,5155,0.002136,0.00072768,0,3852256,0 SPACEBEE-131,1 52181U 22033AA  23064.75366483  .00072768  00000-0  21360-2 0  9998,2 52181  97.3570 147.9368 0007731 179.1973 180.9284 15.34851489 51559,2022-033AA,52181,6839.499,93.82,466.651,456.076,1,
